DELTA 2 R/B(1)          
1 20453U 90008B   26103.86578329  .00038845  00000+0  38891-3 0  9990
2 20453  35.6028 303.1677 0076166 229.8690 129.5356 15.60788884931626
COSMOS 2058             
1 20465U 90010A   26104.19845154  .00001529  00000+0  88178-4 0  9999
2 20465  82.4726  12.4437 0008908 204.0491 156.0324 15.11652033947608
SL-14 R/B               
1 20466U 90010B   26103.82622484  .00000318  00000+0  35507-4 0  9991
2 20466  82.5023 234.3784 0019815 179.8664 180.2560 14.83604490933697
SL-14 R/B               
1 20511U 90018B   26104.21526139  .00000222  00000+0  24865-4 0  9993
2 20511  82.5242 189.8950 0015587 340.0242  20.0360 14.82179147927840
HST                     
1 20580U 90037B   26103.84493882  .00004052  00000+0  12781-3 0  9994
2 20580  28.4729 160.0795 0002273 147.2593 212.8144 15.30041364778700
SL-16 R/B               
1 20625U 90046B   26103.90165497 -.00000277  00000+0 -11838-3 0  9998
2 20625  70.9994 223.9576 0016534 253.8533 106.0770 14.15017530853371
COSMOS 2084             
1 20663U 90055A   26104.05198493  .00001381  00000+0  10846-3 0  9992
2 20663  62.7901 214.9467 0011389 203.3709 156.6875 15.05863939941644
SL-6 R/B(2)             
1 20666U 90055D   26104.14991345  .00000935  00000+0  81897-4 0  9991
2 20666  62.7806 133.2465 0030580 354.6796   5.3973 15.03757695943529
SL-8 R/B                
1 20775U 90078B   26104.04298793  .00008455  00000+0  24947-3 0  9990
2 20775  82.9048 219.4888 0356652 254.5856 101.5709 14.90046571814560
SL-8 R/B                
1 21088U 91006B   26104.13514117  .00000117  00000+0  10202-3 0  9997
2 21088  82.9415 143.6892 0021057 297.5333  81.8328 13.77500849768959
OKEAN-3                 
1 21397U 91039A   26103.58670735  .00001301  00000+0  89564-4 0  9997
2 21397  82.5145 303.0235 0013676 206.7601 153.2922 15.05009786870280
COSMOS 2151             
1 21422U 91042A   26104.16783426  .00001101  00000+0  85711-4 0  9995
2 21422  82.4975  49.4455 0010916 304.8931  55.1266 15.00263342868513
SL-14 R/B               
1 21423U 91042B   26104.20837637  .00000222  00000+0  24970-4 0  9998
2 21423  82.4957 186.8862 0018377 122.0284 238.2718 14.81864587858333
ERS-1                   
1 21574U 91050A   26104.07808491  .00000183  00000+0  73104-4 0  9994
2 21574  98.7848 123.1983 0033159  97.2240 263.2718 14.39476830820821
ARIANE 40 R/B           
1 21610U 91050F   26104.11422502  .00000161  00000+0  60754-4 0  9998
2 21610  98.1942 155.0083 0002475 351.3039   8.8108 14.42919662824103
INTERCOSMOS 25          
1 21819U 91086A   26103.98565485  .00000760  00000+0  14359-3 0  9994
2 21819  82.5993 288.6634 1485978  40.8736 329.4685 12.12113157500967
SL-8 R/B                
1 21876U 92008B   26104.15767161  .00000018  00000+0  22321-5 0  9993
2 21876  82.9260 241.3900 0035340  37.5434 135.8447 13.75970179714297
SL-8 R/B                
1 21938U 92020B   26104.03688758 -.00000024  00000+0 -40380-4 0  9990
2 21938  82.9277 127.5114 0028633 196.3920 192.1665 13.75549994705999
USA 81                  
1 21949U 92023A   26104.07652340  .00000142  00000+0  45153-4 0  9999
2 21949  85.0033 111.0144 0001260  82.4953 277.6382 14.32379700 99850
COSMOS 2219             
1 22219U 92076A   26104.03153485  .00000103  00000+0  78479-4 0  9994
2 22219  71.0588 304.1901 0017389 151.9351 208.2713 14.14088649723378
SL-16 R/B               
1 22220U 92076B   26104.05953440  .00000241  00000+0  14421-3 0  9996
2 22220  70.9977 113.8692 0011437  32.4074 350.8031 14.16865732726845
COSMOS 2221             
1 22236U 92080A   26103.67952645  .00001354  00000+0  11705-3 0  9999
2 22236  82.5026 245.5543 0015625  76.9778 283.3187 14.96355975786020
SL-16 R/B               
1 22285U 92093B   26104.00380332 -.00000157  00000+0 -56131-4 0  9998
2 22285  71.0201 290.1323 0006477 258.4229 101.6167 14.15453741718157
COSMOS 2228             
1 22286U 92094A   26104.20697690  .00001344  00000+0  11307-3 0  9992
2 22286  82.5205 203.3070 0018093 178.0072 182.1226 14.97377477781379
SL-16 R/B               
1 22566U 93016B   26104.04778534  .00000051  00000+0  50525-4 0  9997
2 22566  71.0063 140.9226 0012658 269.6953  90.2719 14.15313861707179
COSMOS 2242             
1 22626U 93024A   26104.07099837  .00001320  00000+0  11299-3 0  9992
2 22626  82.5189 232.8665 0016274 181.5870 178.5304 14.96710735785680
SL-16 R/B               
1 22803U 93059B   26103.97919669  .00000051  00000+0  48968-4 0  9993
2 22803  70.9896 296.7085 0016432 163.7375 196.4279 14.17239196684538
ARIANE 40 R/B           
1 22830U 93061H   26104.17226080  .00000116  00000+0  58098-4 0  9994
2 22830  98.4856 172.3484 0010968 173.0296 187.1042 14.32880052699187
COSMOS 2278             
1 23087U 94023A   26103.95955289  .00000322  00000+0  19294-3 0  9996
2 23087  71.0506 101.3056 0009732 323.3019  36.7436 14.14378981649799
SL-16 R/B               
1 23088U 94023B   26104.13146106 -.00000219  00000+0 -88680-4 0  9991
2 23088  71.0025 356.4578 0005612 255.1957 104.8544 14.15019300651107
SL-16 R/B               
1 23343U 94074B   26104.09984333  .00000255  00000+0  40727-4 0  9996
2 23343  97.7055 133.4749 0008074 103.6059 322.5814 14.79448022692489
SL-16 R/B               
1 23405U 94077B   26104.16993563  .00000100  00000+0  75369-4 0  9990
2 23405  70.9811 277.8436 0001122 163.3499 196.7661 14.15566760621253
ARIANE 40+ R/B          
1 23561U 95021B   26104.18184505  .00000155  00000+0  63145-4 0  9992
2 23561  98.4442 175.1730 0007428  44.6996 335.4456 14.39797923624357
SL-16 R/B               
1 23705U 95058B   26103.75465713  .00000319  00000+0  18734-3 0  9992
2 23705  71.0189 106.6369 0010587  61.4557 298.7630 14.15501863572817
SL-16 R/B               
1 24298U 96051B   26104.22237252  .00000050  00000+0  53859-4 0  9992
2 24298  70.7581 100.0293 0012672  87.8841 272.3730 14.12425119526663
ORBVIEW 2 (SEASTAR)     
1 24883U 97037A   26104.17472044  .00000157  00000+0  70701-4 0  9994
2 24883  98.8626 269.4381 0001539 343.2503  16.8630 14.35519816513564
SL-16 R/B               
1 25400U 98043G   26104.16398301  .00000021  00000+0  27787-4 0  9996
2 25400  98.8311  57.7922 0008745 272.3274  87.6904 14.26058018444041
SL-16 R/B               
1 25407U 98045B   26104.03088087  .00000153  00000+0  10159-3 0  9998
2 25407  71.0090 107.2524 0008821 318.0487  41.9959 14.16198437432109
ISS (ZARYA)             
1 25544U 98067A   26104.13467087  .00005375  00000+0  10597-3 0  9993
2 25544  51.6322 257.0967 0006556 310.1862  49.8552 15.48905907561823
CZ-4B R/B               
1 25732U 99025C   26104.14205006  .00000025  00000+0  32768-4 0  9991
2 25732  98.6557 147.5718 0036112 242.0387 132.3618 14.18272346393190
OKEAN-O                 
1 25860U 99039A   26104.13780406  .00000349  00000+0  52532-4 0  9999
2 25860  97.9373 163.6560 0001164 114.6005 245.5328 14.80391391439630
SL-16 R/B               
1 25861U 99039B   26104.15194271  .00000304  00000+0  45243-4 0  9993
2 25861  97.9896 163.1822 0015736 138.6475 221.5932 14.81780172442116
DELTA 2 R/B             
1 25876U 99041E   26104.11954087  .00000456  00000+0  11360-3 0  9997
2 25876  51.7598 159.7426 0502556  92.9067 272.9470 14.11915717368033
HELIOS 1B               
1 25977U 99064A   26104.15758336  .00000885  00000+0  10322-3 0  9990
2 25977  98.1660   7.4383 0000891  37.5499 322.5778 14.87834759690535
TERRA                   
1 25994U 99068A   26104.18803956  .00000233  00000+0  56403-4 0  9993
2 25994  97.9521 156.2534 0003598  79.8342 326.8783 14.61052398400266
SL-16 R/B               
1 26070U 00006B   26104.19678924 -.00000258  00000+0 -10667-3 0  9999
2 26070  71.0046  23.1760 0014767 133.2330 227.0028 14.15829579353580
TITAN 4B R/B            
1 26474U 00047B   26104.14068985  .00001715  00000+0  11215-3 0  9994
2 26474  67.9869 300.8002 0041272 354.4362   5.6322 15.09861990398260
ENVISAT                 
1 27386U 02009A   26104.13263507  .00000047  00000+0  29143-4 0  9990
2 27386  98.3782  56.8992 0001160  83.9625 287.1553 14.39049296264274
IDEFIX & ARIANE 42P R/B 
1 27422U 02021B   26104.08480124  .00000139  00000+0  69228-4 0  9995
2 27422  98.5908  42.2770 0012998  83.5610 276.7053 14.31050342249088
AQUA                    
1 27424U 02022A   26104.20384441  .00000521  00000+0  11371-3 0  9997
2 27424  98.4230  72.2322 0001756 108.0100 310.2198 14.62057811273926
CZ-4B R/B               
1 27432U 02024C   26104.15676269  .00000005  00000+0  25968-4 0  9999
2 27432  98.8766 157.3723 0049053 282.4971 140.7183 14.14553996234253
MIDORI II (ADEOS-II)    
1 27597U 02056A   26104.15575899  .00000169  00000+0  84188-4 0  9993
2 27597  98.7827  62.8925 0000213 133.2772 226.8428 14.29312428215361
H-2A R/B                
1 27601U 02056E   26103.94557250  .00000210  00000+0  88010-4 0  9991
2 27601  98.3260  62.9825 0071288  57.1034 344.1774 14.33786481219168
CZ-4B R/B               
1 28059U 03049C   26103.72985654  .00000230  00000+0  64246-4 0  9998
2 28059  98.6899 100.0170 0049129 124.0154 236.5722 14.55051881191697
CZ-2C R/B               
1 28222U 04012C   26104.18399874  .00042794  00000+0  36902-3 0  9993
2 28222  97.7155 172.9482 0013945 175.0176 185.1226 15.69031673209832
SL-16 R/B               
1 28353U 04021B   26104.09613850  .00000058  00000+0  54739-4 0  9997
2 28353  71.0006 158.1926 0006188 323.9794  36.0910 14.14605380127842
CZ-4B R/B               
1 28415U 04035C   26104.04412765  .00004235  00000+0  14786-3 0  9996
2 28415  97.3444 137.8668 0031130 199.9004 160.1025 15.29680731185317
CZ-2C R/B               
1 28480U 04046B   26104.17548773  .00000095  00000+0  50322-4 0  9990
2 28480  98.1973  16.9477 0140429  50.2764 311.0697 14.27006487113561
ARIANE 5 R/B            
1 28499U 04049H   26104.20246506  .00000539  00000+0  66156-4 0  9991
2 28499  98.2676 274.0018 0083012 235.4855 123.8501 14.85335520151069
